[{"OBJECT_NAME":"PIESAT D","OBJECT_ID":"2023-047D","EPOCH":"2026-03-09T13:45:37.058976","MEAN_MOTION":15.14301886,"ECCENTRICITY":0.0001784,"INCLINATION":97.5049,"RA_OF_ASC_NODE":257.1462,"ARG_OF_PERICENTER":95.5605,"MEAN_ANOMALY":264.5831,"EPHEMERIS_TYPE":0,"CLASSIFICATION_TYPE":"U","NORAD_CAT_ID":56156,"ELEMENT_SET_NO":999,"REV_AT_EPOCH":16272,"BSTAR":0.00028476,"MEAN_MOTION_DOT":5.148e-5,"MEAN_MOTION_DDOT":0},{"OBJECT_NAME":"COSMOS 2251 DEB","OBJECT_ID":"1993-036ZW","EPOCH":"2026-03-09T08:08:26.165472","MEAN_MOTION":15.02749495,"ECCENTRICITY":0.00499096,"INCLINATION":74.0135,"RA_OF_ASC_NODE":183.9715,"ARG_OF_PERICENTER":290.3808,"MEAN_ANOMALY":69.2023,"EPHEMERIS_TYPE":0,"CLASSIFICATION_TYPE":"U","NORAD_CAT_ID":34752,"ELEMENT_SET_NO":999,"REV_AT_EPOCH":91149,"BSTAR":0.001245658,"MEAN_MOTION_DOT":0.00017109,"MEAN_MOTION_DDOT":0}]
